[{"OBJECT_NAME":"TIANQI-18","OBJECT_ID":"2025-105C","EPOCH":"2026-03-09T22:12:26.656128","MEAN_MOTION":13.99097587,"ECCENTRICITY":0.00119546,"INCLINATION":44.984,"RA_OF_ASC_NODE":103.8187,"ARG_OF_PERICENTER":278.1183,"MEAN_ANOMALY":81.8293,"EPHEMERIS_TYPE":0,"CLASSIFICATION_TYPE":"U","NORAD_CAT_ID":64060,"ELEMENT_SET_NO":999,"REV_AT_EPOCH":4129,"BSTAR":0.00015710679,"MEAN_MOTION_DOT":1.01e-6,"MEAN_MOTION_DDOT":0},{"OBJECT_NAME":"OPS 5712 (P\/L 152)","OBJECT_ID":"1967-053G","EPOCH":"2026-03-09T21:35:28.776768","MEAN_MOTION":13.9850375,"ECCENTRICITY":0.00104327,"INCLINATION":69.9723,"RA_OF_ASC_NODE":263.4447,"ARG_OF_PERICENTER":278.8846,"MEAN_ANOMALY":182.1725,"EPHEMERIS_TYPE":0,"CLASSIFICATION_TYPE":"U","NORAD_CAT_ID":2873,"ELEMENT_SET_NO":999,"REV_AT_EPOCH":99463,"BSTAR":0.00010675304,"MEAN_MOTION_DOT":9.9e-7,"MEAN_MOTION_DDOT":0}]
